STARLINK-5998           
1 56468U 23064W   26068.64335456 -.00003729  00000+0 -30477-3 0  9998
2 56468  70.0004 144.3920 0002898 270.8108  89.2719 14.98347142155244
HYPSO-2                 
1 60531U 24149BR  26068.64186663  .00003981  00000+0  33980-3 0  9993
2 60531  97.6894 146.3679 0001390  74.8032 285.3344 14.98259029 85149
